OBJECT_NAME,OBJECT_ID,EPOCH,MEAN_MOTION,ECCENTRICITY,INCLINATION,RA_OF_ASC_NODE,ARG_OF_PERICENTER,MEAN_ANOMALY,EPHEMERIS_TYPE,CLASSIFICATION_TYPE,NORAD_CAT_ID,ELEMENT_SET_NO,REV_AT_EPOCH,BSTAR,MEAN_MOTION_DOT,MEAN_MOTION_DDOT
HAWK-5A,2022-057AB,2026-06-06T09:35:49.927488,15.51002045,.00059718,97.6593,315.5555,110.7572,249.4320,0,U,52757,999,22467,.45546809E-3,.26411E-3,0
HAWK-6B,2023-011A,2026-06-06T10:16:41.468736,15.22833664,.00041321,40.4987,54.8210,303.4961,56.5453,0,U,55324,999,18620,.23682831E-3,.5468E-4,0
HAWK-6C,2023-011C,2026-06-06T10:15:45.990432,15.22837856,.00046375,40.4981,51.6633,292.8717,67.1603,0,U,55326,999,18621,.22873907E-3,.5275E-4,0
HAWK-6A,2023-011D,2026-06-06T10:15:48.597120,15.22834948,.00042951,40.4987,53.2869,292.3056,67.7298,0,U,55327,999,18621,.24210657E-3,.5594E-4,0
HAWK-7A,2023-054P,2026-06-04T15:53:20.709600,15.27218144,.00046519,97.2694,43.3169,84.2511,275.9259,0,U,56191,999,17511,.70547065E-4,.1811E-4,0
HAWK-7B,2023-054R,2026-06-06T10:20:39.335712,15.27250078,.00040498,97.2735,43.3017,90.4967,269.6737,0,U,56193,999,17538,.27798579E-3,.7353E-4,0
HAWK-7C,2023-054Y,2026-06-06T11:54:50.189472,15.27248703,.00041493,97.2713,44.1374,82.4961,277.6749,0,U,56200,999,17539,.27899414E-3,.738E-4,0
